{
  "type": "FeatureCollection",
  "features": [
    {
      "type": "Feature",
      "properties": {
        "norad_id": 38867,
        "name": "INTELSAT 23 (IS-23)",
        "group": "intelsat",
        "lat": -0.0005852366687710709,
        "lon": -151.0555399550507,
        "alt_km": 35786.37271970162,
        "timestamp": "2025-12-20T11:30:28.038786+00:00",
        "meta_object_name": "INTELSAT 23 (IS-23)",
        "meta_object_id": "2012-057A",
        "meta_epoch": "2025-12-20T02:42:24.084000",
        "meta_mean_motion": 1.00270159,
        "meta_eccentricity": 5.89e-05,
        "meta_inclination": 0.0149,
        "meta_ra_of_asc_node": 58.8171,
        "meta_arg_of_pericenter": 235.5647,
        "meta_mean_anomaly": 142.2033,
        "meta_ephemeris_type": 0,
        "meta_classification_type": "U",
        "meta_norad_cat_id": 38867,
        "meta_element_set_no": 999,
        "meta_rev_at_epoch": 4815,
        "meta_bstar": 0,
        "meta_mean_motion_dot": -2.61e-06,
        "meta_mean_motion_ddot": 0,
        "tle_line1": "1 38867U 12057A   25354.11277875 -.00000261  00000+0  00000+0 0  9992",
        "tle_line2": "2 38867   0.0149  58.8171 0000589 235.5647 142.2033  1.00270159 48150"
      },
      "geometry": {
        "type": "Point",
        "coordinates": [
          -151.0555399550507,
          -0.0005852366687710709
        ]
      }
    },
    {
      "type": "Feature",
      "properties": {
        "norad_id": 39360,
        "name": "FM-6",
        "group": "intelsat",
        "lat": 0.02102018528460294,
        "lon": 145.73590023884785,
        "alt_km": 35775.884140210415,
        "timestamp": "2025-12-20T11:30:28.038798+00:00",
        "meta_object_name": "FM-6",
        "meta_object_id": "2013-058A",
        "meta_epoch": "2025-12-19T13:17:47.071392",
        "meta_mean_motion": 1.00268723,
        "meta_eccentricity": 0.0003035,
        "meta_inclination": 0.0116,
        "meta_ra_of_asc_node": 64.371,
        "meta_arg_of_pericenter": 111.3977,
        "meta_mean_anomaly": 355.921,
        "meta_ephemeris_type": 0,
        "meta_classification_type": "U",
        "meta_norad_cat_id": 39360,
        "meta_element_set_no": 999,
        "meta_rev_at_epoch": 4427,
        "meta_bstar": 0,
        "meta_mean_motion_dot": 8e-08,
        "meta_mean_motion_ddot": 0,
        "tle_line1": "1 39360U 13058A   25353.55401703  .00000008  00000+0  00000+0 0  9997",
        "tle_line2": "2 39360   0.0116  64.3710 0003035 111.3977 355.9210  1.00268723 44273"
      },
      "geometry": {
        "type": "Point",
        "coordinates": [
          145.73590023884785,
          0.02102018528460294
        ]
      }
    },
    {
      "type": "Feature",
      "properties": {
        "norad_id": 40271,
        "name": "INTELSAT 30 (IS-30)",
        "group": "intelsat",
        "lat": 0.017563485101683894,
        "lon": 166.88411651960214,
        "alt_km": 35784.555166834325,
        "timestamp": "2025-12-20T11:30:28.038809+00:00",
        "meta_object_name": "INTELSAT 30 (IS-30)",
        "meta_object_id": "2014-062A",
        "meta_epoch": "2025-12-19T19:39:22.686048",
        "meta_mean_motion": 1.00270758,
        "meta_eccentricity": 0.00016331,
        "meta_inclination": 0.0146,
        "meta_ra_of_asc_node": 25.4584,
        "meta_arg_of_pericenter": 66.8545,
        "meta_mean_anomaly": 196.1418,
        "meta_ephemeris_type": 0,
        "meta_classification_type": "U",
        "meta_norad_cat_id": 40271,
        "meta_element_set_no": 999,
        "meta_rev_at_epoch": 499,
        "meta_bstar": 0,
        "meta_mean_motion_dot": -1.26e-06,
        "meta_mean_motion_ddot": 0,
        "tle_line1": "1 40271U 14062A   25353.81901257 -.00000126  00000+0  00000+0 0  9996",
        "tle_line2": "2 40271   0.0146  25.4584 0001633  66.8545 196.1418  1.00270758  4994"
      },
      "geometry": {
        "type": "Point",
        "coordinates": [
          166.88411651960214,
          0.017563485101683894
        ]
      }
    },
    {
      "type": "Feature",
      "properties": {
        "norad_id": 40333,
        "name": "DIRECTV 14",
        "group": "intelsat",
        "lat": 0.004201748167135758,
        "lon": 162.70495462084466,
        "alt_km": 35784.74400273598,
        "timestamp": "2025-12-20T11:30:28.038821+00:00",
        "meta_object_name": "DIRECTV 14",
        "meta_object_id": "2014-078B",
        "meta_epoch": "2025-12-20T03:19:05.817792",
        "meta_mean_motion": 1.00271013,
        "meta_eccentricity": 3.95e-05,
        "meta_inclination": 0.0184,
        "meta_ra_of_asc_node": 343.2572,
        "meta_arg_of_pericenter": 159.9431,
        "meta_mean_anomaly": 256.3349,
        "meta_ephemeris_type": 0,
        "meta_classification_type": "U",
        "meta_norad_cat_id": 40333,
        "meta_element_set_no": 999,
        "meta_rev_at_epoch": 4024,
        "meta_bstar": 0,
        "meta_mean_motion_dot": -1.01e-06,
        "meta_mean_motion_ddot": 0,
        "tle_line1": "1 40333U 14078B   25354.13826178 -.00000101  00000+0  00000+0 0  9999",
        "tle_line2": "2 40333   0.0184 343.2572 0000395 159.9431 256.3349  1.00271013 40240"
      },
      "geometry": {
        "type": "Point",
        "coordinates": [
          162.70495462084466,
          0.004201748167135758
        ]
      }
    },
    {
      "type": "Feature",
      "properties": {
        "norad_id": 40663,
        "name": "DIRECTV 15",
        "group": "intelsat",
        "lat": 0.004989802810838072,
        "lon": 159.0520578699034,
        "alt_km": 35785.463456695914,
        "timestamp": "2025-12-20T11:30:28.038832+00:00",
        "meta_object_name": "DIRECTV 15",
        "meta_object_id": "2015-026A",
        "meta_epoch": "2025-12-19T19:37:07.901184",
        "meta_mean_motion": 1.00271591,
        "meta_eccentricity": 2.084e-05,
        "meta_inclination": 0.0174,
        "meta_ra_of_asc_node": 339.1795,
        "meta_arg_of_pericenter": 140.8553,
        "meta_mean_anomaly": 160.0394,
        "meta_ephemeris_type": 0,
        "meta_classification_type": "U",
        "meta_norad_cat_id": 40663,
        "meta_element_set_no": 999,
        "meta_rev_at_epoch": 3866,
        "meta_bstar": 0,
        "meta_mean_motion_dot": -7.8e-07,
        "meta_mean_motion_ddot": 0,
        "tle_line1": "1 40663U 15026A   25353.81745256 -.00000078  00000+0  00000+0 0  9993",
        "tle_line2": "2 40663   0.0174 339.1795 0000208 140.8553 160.0394  1.00271591 38668"
      },
      "geometry": {
        "type": "Point",
        "coordinates": [
          159.0520578699034,
          0.004989802810838072
        ]
      }
    },
    {
      "type": "Feature",
      "properties": {
        "norad_id": 40664,
        "name": "SKY MEXICO-1",
        "group": "intelsat",
        "lat": -0.01244230187776489,
        "lon": -176.86605618765452,
        "alt_km": 35788.107879072755,
        "timestamp": "2025-12-20T11:30:28.038844+00:00",
        "meta_object_name": "SKY MEXICO-1",
        "meta_object_id": "2015-026B",
        "meta_epoch": "2025-12-20T02:35:02.288832",
        "meta_mean_motion": 1.00272052,
        "meta_eccentricity": 0.0002321,
        "meta_inclination": 0.0136,
        "meta_ra_of_asc_node": 336.9822,
        "meta_arg_of_pericenter": 308.4655,
        "meta_mean_anomaly": 123.498,
        "meta_ephemeris_type": 0,
        "meta_classification_type": "U",
        "meta_norad_cat_id": 40664,
        "meta_element_set_no": 999,
        "meta_rev_at_epoch": 3865,
        "meta_bstar": 0,
        "meta_mean_motion_dot": -2.1e-06,
        "meta_mean_motion_ddot": 0,
        "tle_line1": "1 40664U 15026B   25354.10766538 -.00000210  00000+0  00000+0 0  9991",
        "tle_line2": "2 40664   0.0136 336.9822 0002321 308.4655 123.4980  1.00272052 38652"
      },
      "geometry": {
        "type": "Point",
        "coordinates": [
          -176.86605618765452,
          -0.01244230187776489
        ]
      }
    },
    {
      "type": "Feature",
      "properties": {
        "norad_id": 40874,
        "name": "INTELSAT 34 (IS-34)",
        "group": "intelsat",
        "lat": -0.0267015309275512,
        "lon": -153.57569476530364,
        "alt_km": 35784.46548287282,
        "timestamp": "2025-12-20T11:30:28.038855+00:00",
        "meta_object_name": "INTELSAT 34 (IS-34)",
        "meta_object_id": "2015-039A",
        "meta_epoch": "2025-12-19T19:50:51.586080",
        "meta_mean_motion": 1.00272065,
        "meta_eccentricity": 6.62e-05,
        "meta_inclination": 0.0164,
        "meta_ra_of_asc_node": 342.9377,
        "meta_arg_of_pericenter": 169.2315,
        "meta_mean_anomaly": 178.7132,
        "meta_ephemeris_type": 0,
        "meta_classification_type": "U",
        "meta_norad_cat_id": 40874,
        "meta_element_set_no": 999,
        "meta_rev_at_epoch": 3782,
        "meta_bstar": 0,
        "meta_mean_motion_dot": -2.61e-06,
        "meta_mean_motion_ddot": 0,
        "tle_line1": "1 40874U 15039A   25353.82698595 -.00000261  00000+0  00000+0 0  9999",
        "tle_line2": "2 40874   0.0164 342.9377 0000662 169.2315 178.7132  1.00272065 37824"
      },
      "geometry": {
        "type": "Point",
        "coordinates": [
          -153.57569476530364,
          -0.0267015309275512
        ]
      }
    }
  ]
}